{
"type": "FeatureCollection",
"name": "IITD_Reference Map",
"features": [
{ "type": "Feature", "properties": { "name": "SDA", "@id": "boundary" }, "geometry": { "type": "Polygon", "coordinates": [ [ [ 77.19604, 28.546281 ], [ 77.198873, 28.545548 ], [ 77.201438, 28.545024 ], [ 77.203019, 28.547879 ], [ 77.203466, 28.54953 ], [ 77.204569, 28.552359 ], [ 77.198694, 28.553904 ], [ 77.1978, 28.551154 ], [ 77.198038, 28.550892 ], [ 77.19604, 28.546281 ] ] ] } },
{ "type": "Feature", "properties": { "name": "Karakoram House", "@id": "hostel" }, "geometry": { "type": "Point", "coordinates": [ 77.182957, 28.547777 ] } },
{ "type": "Feature", "properties": { "name": "Nilgiri House", "@id": "hostel" }, "geometry": { "type": "Point", "coordinates": [ 77.182395, 28.54669 ] } },
{ "type": "Feature", "properties": { "name": "Aravali House", "@id": "hostel" }, "geometry": { "type": "Point", "coordinates": [ 77.183463, 28.548782 ] } },
{ "type": "Feature", "properties": { "name": "Jwalamukhi House", "@id": "hostel" }, "geometry": { "type": "Point", "coordinates": [ 77.183968, 28.549707 ] } },
{ "type": "Feature", "properties": { "name": "Kumaon House", "@id": "hostel", "addr:city": "" }, "geometry": { "type": "Point", "coordinates": [ 77.185212, 28.549259 ] } },
{ "type": "Feature", "properties": { "name": "chat", "@id": "boundary" }, "geometry": { "type": "Polygon", "coordinates": [ [ [ 77.192473, 28.530136 ], [ 77.189258, 28.527618 ], [ 77.190202, 28.527004 ], [ 77.190202, 28.523564 ], [ 77.194081, 28.52252 ], [ 77.196318, 28.522489 ], [ 77.196598, 28.523196 ], [ 77.196947, 28.523533 ], [ 77.197856, 28.524178 ], [ 77.197891, 28.5247 ], [ 77.197507, 28.525437 ], [ 77.196878, 28.526144 ], [ 77.193941, 28.528017 ], [ 77.193382, 28.529215 ], [ 77.192473, 28.530136 ] ] ] } },
{ "type": "Feature", "properties": { "name": "Taxila Apartments", "@id": "nms" }, "geometry": { "type": "Point", "coordinates": [ 77.181501, 28.544746 ] } },
{ "type": "Feature", "properties": { "name": "Vikramshila Apartments", "@id": "nms" }, "geometry": { "type": "Point", "coordinates": [ 77.181093, 28.543968 ] } },
{ "type": "Feature", "properties": { "name": "Girnar House", "@id": "hostel" }, "geometry": { "type": "Point", "coordinates": [ 77.188882, 28.547638 ] } },
{ "type": "Feature", "properties": { "name": "Udaigiri House", "@id": "hostel" }, "geometry": { "type": "Point", "coordinates": [ 77.189351, 28.547653 ] } },
{ "type": "Feature", "properties": { "name": "js", "@id": "boundary" }, "geometry": { "type": "Polygon", "coordinates": [ [ [ 77.190091, 28.547741 ], [ 77.189778, 28.547398 ], [ 77.189336, 28.547212 ], [ 77.188811, 28.547082 ], [ 77.188533, 28.546418 ], [ 77.188327, 28.545656 ], [ 77.190044, 28.545169 ], [ 77.190026, 28.545822 ], [ 77.190162, 28.546393 ], [ 77.190209, 28.547092 ], [ 77.189767, 28.547243 ], [ 77.190268, 28.547663 ], [ 77.190091, 28.547741 ] ] ] } },
{ "type": "Feature", "properties": { "name": "ks", "@id": "boundary" }, "geometry": { "type": "Polygon", "coordinates": [ [ [ 77.183324, 28.541735 ], [ 77.184443, 28.540922 ], [ 77.186138, 28.540277 ], [ 77.187728, 28.539878 ], [ 77.188253, 28.539709 ], [ 77.189441, 28.540707 ], [ 77.189966, 28.541321 ], [ 77.186977, 28.543041 ], [ 77.186802, 28.542856 ], [ 77.186575, 28.542979 ], [ 77.18682, 28.543578 ], [ 77.186505, 28.543639 ], [ 77.186802, 28.544115 ], [ 77.186313, 28.544284 ], [ 77.186103, 28.544422 ], [ 77.185684, 28.543731 ], [ 77.185054, 28.543547 ], [ 77.183971, 28.543824 ], [ 77.183761, 28.54344 ], [ 77.183674, 28.543179 ], [ 77.183918, 28.542503 ], [ 77.183324, 28.541735 ] ] ] } },
{ "type": "Feature", "properties": { "name": "Main Gate", "@id": "gate" }, "geometry": { "type": "Point", "coordinates": [ 77.19649, 28.545781 ] } },
{ "type": "Feature", "properties": { "name": "Gate No 6", "@id": "gate" }, "geometry": { "type": "Point", "coordinates": [ 77.184934, 28.549832 ] } },
{ "type": "Feature", "properties": { "name": "Gate No 5", "@id": "gate" }, "geometry": { "type": "Point", "coordinates": [ 77.179344, 28.546006 ] } },
{ "type": "Feature", "properties": { "name": "Gate No 3", "@id": "gate" }, "geometry": { "type": "Point", "coordinates": [ 77.198923, 28.539536 ] } },
{ "type": "Feature", "properties": { "name": "Kailash House", "@id": "hostel" }, "geometry": { "type": "Point", "coordinates": [ 77.196578, 28.544639 ] } },
{ "type": "Feature", "properties": { "name": "Himadri House", "@id": "hostel" }, "geometry": { "type": "Point", "coordinates": [ 77.197111, 28.545297 ] } },
{ "type": "Feature", "properties": { "name": "Sahaydri House", "@id": "hostel" }, "geometry": { "type": "Point", "coordinates": [ 77.197811, 28.544996 ] } },
{ "type": "Feature", "properties": { "name": "Dronagiri House", "@id": "hostel" }, "geometry": { "type": "Point", "coordinates": [ 77.18742, 28.546849 ] } },
{ "type": "Feature", "id": "way/283148869", "properties": { "name": "IITD", "@id": "boundary", "addr:city": "National Capital Territory of Delhi", "addr:country": "IN", "addr:district": "South Delhi", "addr:postcode": "110016", "addr:street": "Gamal Abdel Nasser Marg", "amenity": "university", "barrier": "wall", "contact:facebook": "https://www.facebook.com/IITDelhi", "email": "director@admin.iitd.ac.in", "internet_access": "yes", "name:ar": "المعهد الهندي للتكنولوجيا دلهي", "name:fr": "Institut indien de technologie de Delhi", "name:hi": "भारतीय प्रौद्योगिकी संस्थान दिल्ली", "name:ml": "ഇന്ത്യൻ ഇൻസ്റ്റിറ്റ്യൂട്ട് ഓഫ് ടെക്നോളജി ഡെൽഹി", "name:mr": "भारतीय तंत्रज्ञान संस्था दिल्ली", "name:ta": "இந்திய தொழில்நுட்பக் கழகம் தில்லி", "official_name": "Indian Institute of Technology Delhi", "official_name:hi": "भारतीय प्रौद्योगिकी संस्थान दिल्ली", "operator": "Govt of India", "operator:type": "public", "phone": "+91 11 2659 7135", "short_name": "IIT Delhi;IITD", "start_date": "1961-08-21", "website": "http://iitd.ac.in/", "wikidata": "Q1194650", "wikimedia_commons": "Category:IIT Delhi", "wikipedia": "en:IIT Delhi" }, "geometry": { "type": "Polygon", "coordinates": [ [ [ 77.198848, 28.539377 ], [ 77.19945, 28.540824 ], [ 77.200351, 28.542925 ], [ 77.200788, 28.543741 ], [ 77.200961, 28.544181 ], [ 77.200953, 28.544331 ], [ 77.200887, 28.544499 ], [ 77.200759, 28.54464 ], [ 77.200571, 28.544735 ], [ 77.200131, 28.544824 ], [ 77.19749, 28.545506 ], [ 77.195261, 28.546136 ], [ 77.195167, 28.545977 ], [ 77.194734, 28.546099 ], [ 77.194755, 28.54623 ], [ 77.194259, 28.546388 ], [ 77.194216, 28.54642 ], [ 77.193697, 28.54657 ], [ 77.193664, 28.546602 ], [ 77.191465, 28.547299 ], [ 77.190265, 28.547656 ], [ 77.18976, 28.547235 ], [ 77.190217, 28.547104 ], [ 77.190194, 28.546877 ], [ 77.190168, 28.54637 ], [ 77.190037, 28.545823 ], [ 77.190039, 28.545171 ], [ 77.188323, 28.545643 ], [ 77.188519, 28.546409 ], [ 77.188666, 28.546757 ], [ 77.188802, 28.547076 ], [ 77.189333, 28.547206 ], [ 77.189439, 28.547251 ], [ 77.189752, 28.547383 ], [ 77.190099, 28.547741 ], [ 77.186693, 28.549151 ], [ 77.186616, 28.548996 ], [ 77.186111, 28.549206 ], [ 77.186189, 28.549361 ], [ 77.184835, 28.549894 ], [ 77.183784, 28.550356 ], [ 77.183365, 28.549537 ], [ 77.183224, 28.549269 ], [ 77.182951, 28.548658 ], [ 77.181993, 28.547088 ], [ 77.181553, 28.547402 ], [ 77.181431, 28.547548 ], [ 77.181305, 28.54764 ], [ 77.180982, 28.547461 ], [ 77.180662, 28.547579 ], [ 77.180658, 28.547632 ], [ 77.180668, 28.54786 ], [ 77.180671, 28.547874 ], [ 77.180609, 28.547896 ], [ 77.18064, 28.548016 ], [ 77.180099, 28.548158 ], [ 77.179578, 28.546474 ], [ 77.179365, 28.545972 ], [ 77.179254, 28.545712 ], [ 77.178594, 28.544569 ], [ 77.183346, 28.541697 ], [ 77.183909, 28.542503 ], [ 77.18368, 28.543201 ], [ 77.183701, 28.543307 ], [ 77.183728, 28.543418 ], [ 77.183977, 28.54378 ], [ 77.184722, 28.543666 ], [ 77.185013, 28.543582 ], [ 77.185638, 28.543705 ], [ 77.185985, 28.544252 ], [ 77.186081, 28.544423 ], [ 77.186094, 28.544417 ], [ 77.186381, 28.544271 ], [ 77.186799, 28.544122 ], [ 77.186538, 28.543655 ], [ 77.186837, 28.543553 ], [ 77.186556, 28.542996 ], [ 77.186815, 28.542849 ], [ 77.186969, 28.543051 ], [ 77.188299, 28.542296 ], [ 77.189998, 28.541322 ], [ 77.191996, 28.542029 ], [ 77.192398, 28.541927 ], [ 77.198848, 28.539377 ] ] ] } },
{ "type": "Feature", "properties": { "name": "staff residence", "@id": "staff" }, "geometry": { "type": "Polygon", "coordinates": [ [ [ 77.19298, 28.541725 ], [ 77.198928, 28.539565 ], [ 77.200334, 28.542757 ], [ 77.199738, 28.542989 ], [ 77.199067, 28.541702 ], [ 77.19744, 28.542345 ], [ 77.196651, 28.542596 ], [ 77.19707, 28.543718 ], [ 77.196093, 28.54412 ], [ 77.19298, 28.541725 ] ] ] } },
{ "type": "Feature", "id": "way/272259456", "properties": { "name": "Block 1", "@id": "way/272259456", "alt_name": "Department of Biochemical Engineering and Biotechnology", "building": "university", "building:colour": "white", "building:levels": "4", "building:use": "education", "roof:shape": "flat", "@geometry": "center" }, "geometry": { "type": "Point", "coordinates": [ 77.19362, 28.545834 ] } },
{ "type": "Feature", "id": "way/272259457", "properties": { "name": "Central Library", "@id": "way/272259457", "building": "university", "building:levels": "2", "@geometry": "center" }, "geometry": { "type": "Point", "coordinates": [ 77.19141, 28.54462 ] } },
{ "type": "Feature", "id": "way/272259458", "properties": { "name": "Mathematics Department", "@id": "way/272259458", "building": "yes", "@geometry": "center" }, "geometry": { "type": "Point", "coordinates": [ 77.192136, 28.544814 ] } },
{ "type": "Feature", "id": "way/272261119", "properties": { "name": "Bharti School", "@id": "way/272261119", "addr:city": "New Delhi", "addr:housenumber": "Block-IIA-102", "addr:postcode": "110016", "addr:street": "ndian Institute Of Technology Delhi", "building": "university", "building:levels": "4", "phone": "+911126596200", "@geometry": "center" }, "geometry": { "type": "Point", "coordinates": [ 77.19045, 28.545029 ] } },
{ "type": "Feature", "id": "way/358757485", "properties": { "name": "Admin Building", "@id": "way/358757485", "building": "university", "layer": "-1", "@geometry": "center" }, "geometry": { "type": "Point", "coordinates": [ 77.192479, 28.544946 ] } },
{ "type": "Feature", "id": "way/358768033", "properties": { "name": "Central Workshop", "@id": "way/358768033", "building": "university", "@geometry": "center" }, "geometry": { "type": "Point", "coordinates": [ 77.192303, 28.543513 ] } },
{ "type": "Feature", "id": "way/362007373", "properties": { "name": "6 LT 2", "@id": "way/362007373", "building": "university", "@geometry": "center" }, "geometry": { "type": "Point", "coordinates": [ 77.191245, 28.546882 ] } },
{ "type": "Feature", "id": "way/362007376", "properties": { "name": "6 LT 1", "@id": "way/362007376", "building": "university", "@geometry": "center" }, "geometry": { "type": "Point", "coordinates": [ 77.190481, 28.54661 ] } },
{ "type": "Feature", "id": "way/649533941", "properties": { "name": "SIT", "@id": "way/649533941", "addr:city": "New Delhi", "addr:postcode": "110016", "addr:street": "Indian Institute of Technology Delhi,  Hauz Khas", "building": "university", "building:entrances": "main", "building:levels": "4", "entrance:door": "stairs", "@geometry": "center" }, "geometry": { "type": "Point", "coordinates": [ 77.190219, 28.545457 ] } },
{ "type": "Feature", "id": "way/1088204564", "properties": { "name": "Academic Complex East", "@id": "way/1088204564", "building": "university", "@geometry": "center" }, "geometry": { "type": "Point", "coordinates": [ 77.194624, 28.54399 ] } },
{ "type": "Feature", "id": "way/1088204565", "properties": { "name": "Academic Complex West", "@id": "way/1088204565", "building": "university", "@geometry": "center" }, "geometry": { "type": "Point", "coordinates": [ 77.191473, 28.542828 ] } },
{ "type": "Feature", "id": "way/1088204566", "properties": { "name": "Synergy Building", "@id": "way/1088204566", "addr:housename": "Synergy Building", "building": "university", "@geometry": "center" }, "geometry": { "type": "Point", "coordinates": [ 77.191037, 28.54361 ] } },
{ "type": "Feature", "id": "way/1088204567", "properties": { "name": "Department of Material Science", "@id": "way/1088204567", "building": "university", "building:levels": "2", "@geometry": "center" }, "geometry": { "type": "Point", "coordinates": [ 77.193597, 28.544408 ] } },
{ "type": "Feature", "id": "way/1088204568", "properties": { "name": "Textile Department", "@id": "way/1088204568", "building": "university", "building:levels": "1", "@geometry": "center" }, "geometry": { "type": "Point", "coordinates": [ 77.193548, 28.544007 ] } },
{ "type": "Feature", "id": "way/1501293289", "properties": { "name": "2 LT 2", "@id": "way/1501293289", "building": "university", "@geometry": "center" }, "geometry": { "type": "Point", "coordinates": [ 77.192869, 28.545788 ] } },
{ "type": "Feature", "properties": { "name": "Block 2", "@id": "" }, "geometry": { "type": "Point", "coordinates": [ 77.192196, 28.54572 ] } },
{ "type": "Feature", "properties": { "name": "Block 3" }, "geometry": { "type": "Point", "coordinates": [ 77.192006, 28.546046 ] } },
{ "type": "Feature", "properties": { "name": "Block 4" }, "geometry": { "type": "Point", "coordinates": [ 77.191717, 28.546407 ] } },
{ "type": "Feature", "properties": { "name": "Block 5" }, "geometry": { "type": "Point", "coordinates": [ 77.191225, 28.546666 ] } },
{ "type": "Feature", "properties": { "name": "Block 6" }, "geometry": { "type": "Point", "coordinates": [ 77.190864, 28.546963 ] } },
{ "type": "Feature", "properties": { "name": "2 LT 1" }, "geometry": { "type": "Point", "coordinates": [ 77.190955, 28.54551 ] } },
{ "type": "Feature", "properties": { "name": "2 LT 2" }, "geometry": { "type": "Point", "coordinates": [ 77.191529, 28.545685 ] } },
{ "type": "Feature", "properties": { "name": "3 LT 1" }, "geometry": { "type": "Point", "coordinates": [ 77.190834, 28.545856 ] } },
{ "type": "Feature", "properties": { "name": "3 LT 2" }, "geometry": { "type": "Point", "coordinates": [ 77.191359, 28.54605 ] } },
{ "type": "Feature", "properties": { "name": "LHC", "@id": "LHC" }, "geometry": { "type": "Point", "coordinates": [ 77.193155, 28.543048 ] } },
{ "type": "Feature", "properties": { "name": "Dogra Hall", "@id": "DH" }, "geometry": { "type": "Point", "coordinates": [ 77.192026, 28.54479 ] } },
{ "type": "Feature", "properties": { "name": "Type 5 Residency" }, "geometry": { "type": "Polygon", "coordinates": [ [ [ 77.196703, 28.542647 ], [ 77.197378, 28.542422 ], [ 77.198362, 28.544686 ], [ 77.199654, 28.544389 ], [ 77.199647, 28.54426 ], [ 77.199236, 28.543254 ], [ 77.200315, 28.542835 ], [ 77.200968, 28.544183 ], [ 77.200939, 28.544415 ], [ 77.200836, 28.54455 ], [ 77.200682, 28.544699 ], [ 77.198744, 28.54515 ], [ 77.198362, 28.544686 ], [ 77.197562, 28.544828 ], [ 77.196703, 28.542647 ] ] ] } },
{ "type": "Feature", "properties": { "name": "Type 4 Residency" }, "geometry": { "type": "Polygon", "coordinates": [ [ [ 77.181463, 28.54575 ], [ 77.181232, 28.545252 ], [ 77.183836, 28.544111 ], [ 77.184192, 28.544615 ], [ 77.181463, 28.54575 ] ] ] } },
{ "type": "Feature", "properties": { "name": "Vindhyachal House" }, "geometry": { "type": "Point", "coordinates": [ 77.186257, 28.548674 ] } },
{ "type": "Feature", "properties": { "name": "Shivalik House" }, "geometry": { "type": "Point", "coordinates": [ 77.185918, 28.547703 ] } },
{ "type": "Feature", "properties": { "name": "Zanskar House" }, "geometry": { "type": "Point", "coordinates": [ 77.186309, 28.546683 ] } },
{ "type": "Feature", "properties": { "name": "Satpura House" }, "geometry": { "type": "Point", "coordinates": [ 77.187982, 28.548213 ] } },
{ "type": "Feature", "properties": { "name": "Type 4 Residency" }, "geometry": { "type": "Polygon", "coordinates": [ [ [ 77.186853, 28.548028 ], [ 77.186845, 28.547565 ], [ 77.18793, 28.547545 ], [ 77.187908, 28.548039 ], [ 77.186853, 28.548028 ] ] ] } },
{ "type": "Feature", "properties": { "name": "Nalanda Apartments" }, "geometry": { "type": "Point", "coordinates": [ 77.183207, 28.545738 ] } },
{ "type": "Feature", "properties": { "name": "Managment School" }, "geometry": { "type": "Point", "coordinates": [ 77.182882, 28.542768 ] } }
]
}
